ONEWEB-0504             
1 54122U 22138K   25138.42603064  .00000004  00000+0 -22210-4 0  9999
2 54122  87.9241  23.4323 0001618  75.2829 284.8482 13.19723637124761
ONEWEB-0505             
1 54123U 22138L   25138.57451335 -.00000035  00000+0 -11861-3 0  9992
2 54123  87.9241  23.3931 0001260  76.3947 283.7326 13.19724551125630
ONEWEB-0506             
1 54124U 22138M   25138.62505374  .00000073  00000+0  14914-3 0  9994
2 54124  87.9242  23.3801 0001667  79.9768 280.1553 13.19723814124766
ONEWEB-0507             
1 54125U 22138N   25138.41812916 -.00000050  00000+0 -15799-3 0  9994
2 54125  87.9248  23.4707 0001605  83.2007 276.9308 13.19727402124785
ONEWEB-0508             
1 54126U 22138P   25138.64243379  .00000081  00000+0  16954-3 0  9997
2 54126  87.9246  23.4101 0001472  88.2763 271.8538 13.19725362124791
ONEWEB-0509             
1 54127U 22138Q   25138.61714889  .00000005  00000+0 -20932-4 0  9993
2 54127  87.9241  23.3794 0001700  80.2869 279.8456 13.19723667124767
ONEWEB-0510             
1 54128U 22138R   25138.59011002  .00000014  00000+0  32709-5 0  9993
2 54128  87.9279 353.0166 0002420  83.1932 276.9477 13.20768865127190
ONEWEB-0511             
1 54129U 22138S   25138.61399070 -.00000306  00000+0 -79701-3 0  9998
2 54129  87.9241  23.3855 0001870  71.4277 288.7059 13.19725016124791
